IRIDIUM 159             
1 43578U 18061K   25205.50350113  .00000059  00000+0  13861-4 0  9991
2 43578  86.3991 193.6165 0002491  89.0133 271.1348 14.34217996366418
IRIDIUM 180             
1 43922U 19002A   25205.22391755  .00000228  00000+0  74220-4 0  9990
2 43922  86.4000 130.7172 0002301  81.7684 278.3772 14.34220275342028
IRIDIUM 176             
1 43923U 19002B   25205.28276141  .00000984  00000+0  15213-3 0  9993
2 43923  86.6125 130.6820 0002121  71.9500 288.1948 14.72244667351001
IRIDIUM 168             
1 43924U 19002C   25205.49665428  .00000173  00000+0  54848-4 0  9995
2 43924  86.4001 130.6714 0002249  83.2834 276.8618 14.34218028342000
IRIDIUM 173             
1 43925U 19002D   25205.55374060  .00000238  00000+0  78029-4 0  9991
2 43925  86.3998 130.5500 0002205  78.9948 281.1496 14.34220376341995
IRIDIUM 169             
1 43926U 19002E   25205.36633000  .00000265  00000+0  79979-4 0  9998
2 43926  86.4274 162.2151 0001668  46.6630 313.4707 14.38609463343099
IRIDIUM 172             
1 43927U 19002F   25204.84971084  .00000006  00000+0 -49357-5 0  9990
2 43927  86.4000 130.8506 0002362  81.4223 278.7240 14.34217532341900
IRIDIUM 175             
1 43928U 19002G   25205.61763352  .00000792  00000+0  12172-3 0  9998
2 43928  86.1474  80.9209 0001508 103.4020 256.7365 14.72243383351044
